NORAD_CAT_ID,OBJECT_NAME,OBJECT_TYPE,EPOCH,MEAN_MOTION,ECCENTRICITY,INCLINATION,RA_OF_ASC_NODE,ARG_OF_PERICENTER,MEAN_ANOMALY,BSTAR,MEAN_MOTION_DOT,MEAN_MOTION_DDOT,TLE_LINE0,TLE_LINE1,TLE_LINE2,SEMIMAJOR_AXIS,PERIOD,APOGEE,PERIGEE,DECAYED
53594.0,STARLINK-4681,PAYLOAD,2024-03-23 13:23:18,15.08842761,0.0002116,53.2164,218.9319,124.02,236.0994,0.00019727,2.853e-05,0.0,0 STARLINK-4681,1 53594U 22104G   24083.55784847  .00002853  00000-0  19727-3 0  9997,2 53594  53.2164 218.9319 0002116 124.0200 236.0994 15.08842761 86819,6917.872,95.437,541.201,538.273,0.0
53594.0,STARLINK-4681,PAYLOAD,2024-03-23 16:34:04,15.0884238,0.0001748,53.2163,218.3402,81.0008,279.1181,0.00051628,7.939e-05,0.0,0 STARLINK-4681,1 53594U 22104G   24083.69033197  .00007939  00000-0  51628-3 0  9993,2 53594  53.2163 218.3402 0001748  81.0008 279.1181 15.08842380 87996,6917.873,95.437,540.947,538.529,0.0
53594.0,STARLINK-4681,PAYLOAD,2024-03-24 13:14:05,15.08836231,0.0001744,53.2163,214.4751,88.7316,271.3876,0.00047044,7.206e-05,0.0,0 STARLINK-4681,1 53594U 22104G   24084.55145769  .00007206  00000-0  47044-3 0  9992,2 53594  53.2163 214.4751 0001744  88.7316 271.3876 15.08836231 86961,6917.892,95.438,540.963,538.55,0.0
53594.0,STARLINK-4681,PAYLOAD,2024-03-24 14:49:29,15.08838745,0.0001754,53.2162,214.1786,74.8287,285.2899,0.00061915,9.579e-05,0.0,0 STARLINK-4681,1 53594U 22104G   24084.61769898  .00009579  00000-0  61915-3 0  9992,2 53594  53.2162 214.1786 0001754  74.8287 285.2899 15.08838745 88131,6917.884,95.438,540.963,538.536,0.0
53594.0,STARLINK-4681,PAYLOAD,2024-03-25 14:40:15,15.08859235,0.0001636,53.2154,209.715,95.4412,264.6766,0.00094258,0.00014753,0.0,0 STARLINK-4681,1 53594U 22104G   24085.61129321  .00014753  00000-0  94258-3 0  9990,2 53594  53.2154 209.7150 0001636  95.4412 264.6766 15.08859235 87124,6917.822,95.436,540.818,538.555,0.0
53594.0,STARLINK-4681,PAYLOAD,2024-03-26 12:55:40,15.08838016,0.0001457,53.2168,205.5518,94.0359,266.08,4.5017e-06,-2.16e-06,0.0,0 STARLINK-4681,1 53594U 22104G   24086.53865786 -.00000216  00000-0  45017-5 0  9995,2 53594  53.2168 205.5518 0001457  94.0359 266.0800 15.08838016 87261,6917.886,95.438,540.759,538.744,0.0
53594.0,STARLINK-4681,PAYLOAD,2024-03-26 14:31:03,15.08837744,0.0001534,53.2168,205.2544,83.5352,276.5814,1.4502e-05,-5.7e-07,0.0,0 STARLINK-4681,1 53594U 22104G   24086.60489922 -.00000057  00000-0  14502-4 0  9994,2 53594  53.2168 205.2544 0001534  83.5352 276.5814 15.08837744 88437,6917.887,95.438,540.813,538.691,0.0
53594.0,STARLINK-4681,PAYLOAD,2024-03-27 14:21:50,15.08842768,0.000159,53.2168,200.7951,86.7717,273.3457,6.8313e-05,7.99e-06,0.0,0 STARLINK-4681,1 53594U 22104G   24087.59849856  .00000799  00000-0  68313-4 0  9990,2 53594  53.2168 200.7951 0001590  86.7717 273.3457 15.08842768 88587,6917.872,95.437,540.837,538.637,0.0
53594.0,STARLINK-4681,PAYLOAD,2024-03-27 17:32:36,15.0884554,0.0001408,53.2165,200.1989,90.7562,269.3592,0.00010366,1.362e-05,0.0,0 STARLINK-4681,1 53594U 22104G   24087.73097694  .00001362  00000-0  10366-3 0  9992,2 53594  53.2165 200.1989 0001408  90.7562 269.3592 15.08845540 87440,6917.863,95.437,540.702,538.754,0.0
53594.0,STARLINK-4681,PAYLOAD,2024-03-28 12:37:14,15.08822579,0.0001349,53.2166,196.631,72.7843,287.3297,-0.00018438,-3.22e-05,0.0,0 STARLINK-4681,1 53594U 22104G   24088.52585841 -.00003220  00000-0 -18438-3 0  9991,2 53594  53.2166 196.6310 0001349  72.7843 287.3297 15.08822579 87566,6917.934,95.439,540.732,538.865,0.0
53594.0,STARLINK-4681,PAYLOAD,2024-03-28 14:12:37,15.08824083,0.0001441,53.2169,196.3339,103.2734,256.8419,-0.00017613,-3.089e-05,0.0,0 STARLINK-4681,1 53594U 22104G   24088.59209684 -.00003089  00000-0 -17613-3 0  9993,2 53594  53.2169 196.3339 0001441 103.2734 256.8419 15.08824083 88738,6917.929,95.439,540.791,538.797,0.0
53594.0,STARLINK-4681,PAYLOAD,2024-03-28 17:23:23,15.08824769,0.0001474,53.2171,195.7394,104.2124,255.9032,-0.00015546,-2.76e-05,0.0,0 STARLINK-4681,1 53594U 22104G   24088.72457961 -.00002760  00000-0 -15546-3 0  9999,2 53594  53.2171 195.7394 0001474 104.2124 255.9032 15.08824769 88759,6917.927,95.439,540.812,538.772,0.0
53594.0,STARLINK-4681,PAYLOAD,2024-03-29 12:28:00,15.08843455,0.0001359,53.2163,192.1711,92.043,268.0718,-1.2456e-05,-4.86e-06,0.0,0 STARLINK-4681,1 53594U 22104G   24089.51945437 -.00000486  00000-0 -12456-4 0  9998,2 53594  53.2163 192.1711 0001359  92.0430 268.0718 15.08843455 87714,6917.87,95.437,540.675,538.795,0.0
53594.0,STARLINK-4681,PAYLOAD,2024-03-29 14:03:23,15.08848715,0.0001377,53.2165,191.8749,97.3371,262.7778,7.6698e-05,9.33e-06,0.0,0 STARLINK-4681,1 53594U 22104G   24089.58569197  .00000933  00000-0  76698-4 0  9993,2 53594  53.2165 191.8749 0001377  97.3371 262.7778 15.08848715 88885,6917.854,95.437,540.671,538.766,0.0
53594.0,STARLINK-4681,PAYLOAD,2024-03-29 17:14:09,15.08853012,0.0001374,53.2162,191.2793,93.8707,266.2442,0.00019579,2.831e-05,0.0,0 STARLINK-4681,1 53594U 22104G   24089.71816931  .00002831  00000-0  19579-3 0  9992,2 53594  53.2162 191.2793 0001374  93.8707 266.2442 15.08853012 87743,6917.841,95.437,540.656,538.755,0.0
53594.0,STARLINK-4681,PAYLOAD,2024-03-29 23:35:42,15.08844512,0.0001271,53.2157,190.0906,81.9702,278.1435,0.00015868,2.239e-05,0.0,0 STARLINK-4681,1 53594U 22104G   24089.98313242  .00002239  00000-0  15868-3 0  9997,2 53594  53.2157 190.0906 0001271  81.9702 278.1435 15.08844512 87782,6917.867,95.437,540.611,538.852,0.0
53594.0,STARLINK-4681,PAYLOAD,2024-03-30 12:18:49,15.0881758,0.0001583,53.2173,187.7173,83.9711,276.1461,3.7562e-05,3.1e-06,0.0,0 STARLINK-4681,1 53594U 22104G   24090.51306862  .00000310  00000-0  37562-4 0  9992,2 53594  53.2173 187.7173 0001583  83.9711 276.1461 15.08817580 87868,6917.949,95.439,540.909,538.719,0.0
53594.0,STARLINK-4681,PAYLOAD,2024-03-30 13:54:12,15.0881498,0.0001315,53.2168,187.4203,80.9936,279.1205,-4.5877e-05,-1.017e-05,0.0,0 STARLINK-4681,1 53594U 22104G   24090.57930862 -.00001017  00000-0 -45877-4 0  9996,2 53594  53.2168 187.4203 0001315  80.9936 279.1205 15.08814980 89033,6917.957,95.439,540.732,538.912,0.0
53594.0,STARLINK-4681,PAYLOAD,2024-03-30 15:29:35,15.08820157,0.0001556,53.2166,187.1228,95.3248,264.7922,-0.00024046,-4.111e-05,0.0,0 STARLINK-4681,1 53594U 22104G   24090.64554746 -.00004111  00000-0 -24046-3 0  9999,2 53594  53.2166 187.1228 0001556  95.3248 264.7922 15.08820157 89048,6917.941,95.439,540.882,538.73,0.0
53594.0,STARLINK-4681,PAYLOAD,2024-03-31 12:09:36,15.08842392,0.0001901,53.2162,183.2564,67.3308,292.7885,0.00037454,5.678e-05,0.0,0 STARLINK-4681,1 53594U 22104G   24091.50666900  .00005678  00000-0  37454-3 0  9995,2 53594  53.2162 183.2564 0001901  67.3308 292.7885 15.08842392 88014,6917.873,95.437,541.053,538.423,0.0
53594.0,STARLINK-4681,PAYLOAD,2024-03-31 13:44:59,15.08847793,0.0001926,53.2151,182.9583,66.217,293.9024,0.0004219,6.434e-05,0.0,0 STARLINK-4681,1 53594U 22104G   24091.57290723  .00006434  00000-0  42190-3 0  9992,2 53594  53.2151 182.9583 0001926  66.2170 293.9024 15.08847793 89188,6917.857,95.437,541.054,538.389,0.0
53594.0,STARLINK-4681,PAYLOAD,2024-04-01 12:00:23,15.08836116,0.0001415,53.2153,178.7901,102.6496,257.4654,0.00016962,2.412e-05,0.0,0 STARLINK-4681,1 53594U 22104G   24092.50027067  .00002412  00000-0  16962-3 0  9995,2 53594  53.2153 178.7901 0001415 102.6496 257.4654 15.08836116 88164,6917.892,95.438,540.736,538.778,0.0
53594.0,STARLINK-4681,PAYLOAD,2024-04-02 05:29:37,15.0885364,0.0001445,53.2155,175.519,95.1695,264.9462,0.00015105,2.118e-05,0.0,0 STARLINK-4681,1 53594U 22104G   24093.22890173  .00002118  00000-0  15105-3 0  9992,2 53594  53.2155 175.5190 0001445  95.1695 264.9462 15.08853640 88274,6917.839,95.437,540.703,538.704,0.0
53594.0,STARLINK-4681,PAYLOAD,2024-04-02 11:51:09,15.08860077,0.0001493,53.2155,174.3298,94.8461,265.2701,0.00030984,4.649e-05,0.0,0 STARLINK-4681,1 53594U 22104G   24093.49385787  .00004649  00000-0  30984-3 0  9994,2 53594  53.2155 174.3298 0001493  94.8461 265.2701 15.08860077 89475,6917.819,95.436,540.717,538.651,0.0
53594.0,STARLINK-4681,PAYLOAD,2024-04-03 11:41:56,15.08847953,0.0001471,53.215,169.871,84.61,275.506,0.00018869,2.717e-05,0.0,0 STARLINK-4681,1 53594U 22104G   24094.48746074  .00002717  00000-0  18869-3 0  9996,2 53594  53.2150 169.8710 0001471  84.6100 275.5060 15.08847953 88469,6917.856,95.437,540.739,538.703,0.0
53594.0,STARLINK-4681,PAYLOAD,2024-04-03 14:52:42,15.08847482,0.0001388,53.2157,169.2753,82.2292,277.8857,0.0001161,1.561e-05,0.0,0 STARLINK-4681,1 53594U 22104G   24094.61993946  .00001561  00000-0  11610-3 0  9996,2 53594  53.2157 169.2753 0001388  82.2292 277.8857 15.08847482 89647,6917.858,95.437,540.683,538.762,0.0
53594.0,STARLINK-4681,PAYLOAD,2024-04-04 05:11:11,15.08840528,0.0001408,53.2154,166.5988,82.7178,277.3974,-2.386e-05,-6.68e-06,0.0,0 STARLINK-4681,1 53594U 22104G   24095.21610141 -.00000668  00000-0 -23860-4 0  9996,2 53594  53.2154 166.5988 0001408  82.7178 277.3974 15.08840528 88575,6917.879,95.438,540.718,538.77,0.0
53594.0,STARLINK-4681,PAYLOAD,2024-04-04 11:32:43,15.08841781,0.0001363,53.2159,165.4089,85.0188,275.096,2.4127e-06,-2.5e-06,0.0,0 STARLINK-4681,1 53594U 22104G   24095.48106110 -.00000250  00000-0  24127-5 0  9995,2 53594  53.2159 165.4089 0001363  85.0188 275.0960 15.08841781 89772,6917.875,95.437,540.683,538.797,0.0
53594.0,STARLINK-4681,PAYLOAD,2024-04-04 21:05:02,15.08844344,0.0001336,53.216,163.6248,81.7188,278.3956,-4.8789e-05,-1.064e-05,0.0,0 STARLINK-4681,1 53594U 22104G   24095.87849897 -.00001064  00000-0 -48789-4 0  9998,2 53594  53.2160 163.6248 0001336  81.7188 278.3956 15.08844344 89830,6917.867,95.437,540.656,538.808,0.0
53594.0,STARLINK-4681,PAYLOAD,2024-04-05 11:23:30,15.0884779,0.0001328,53.2158,160.9489,79.7301,280.3841,0.00018953,2.73e-05,0.0,0 STARLINK-4681,1 53594U 22104G   24096.47465679  .00002730  00000-0  18953-3 0  9995,2 53594  53.2158 160.9489 0001328  79.7301 280.3841 15.08847790 88764,6917.857,95.437,540.64,538.803,0.0
